IRIDIUM 26              
1 24903U 97043A   25310.70615403  .00000670  00000+0  21831-3 0  9998
2 24903  86.3975  50.7012 0002009  89.0882 271.0546 14.37280707477214
IRIDIUM 22              
1 24907U 97043E   25310.75431660  .00000604  00000+0  20099-3 0  9990
2 24907  86.3973  54.3432 0001975  94.7029 265.4393 14.36079496477238
DUMMY MASS 1            
1 24925U 97048A   25310.60534328  .00000753  00000+0  80674-4 0  9995
2 24925  86.3338  69.4236 0007093  21.0266 339.1249 14.87130616526293
DUMMY MASS 2            
1 24926U 97048B   25310.79316565  .00000752  00000+0  81056-4 0  9991
2 24926  86.3336  70.9713 0008245  29.0623 331.1060 14.86881500526099
IRIDIUM 29              
1 24944U 97051A   25310.79548825  .00000754  00000+0  24999-3 0  9995
2 24944  86.3931  84.0351 0002080  97.7252 262.4182 14.36608366473741
IRIDIUM 33              
1 24946U 97051C   25310.79573039  .00000575  00000+0  19510-3 0  9996
2 24946  86.3847  83.3085 0007080 347.6221  12.4800 14.34995740473195
IRIDIUM 28              
1 24948U 97051E   25310.81821903  .00000692  00000+0  22466-3 0  9991
2 24948  86.3938  81.4581 0001881  77.4389 282.7019 14.37512077474336
IRIDIUM 36              
1 24967U 97056C   25310.96800638  .00000592  00000+0  19055-3 0  9994
2 24967  86.3931 113.0288 0001827  86.9602 273.1805 14.37731600472733
